[{"OBJECT_NAME":"ONEWEB-0687","OBJECT_ID":"2024-188B","EPOCH":"2026-03-09T21:45:01.625184","MEAN_MOTION":13.17648727,"ECCENTRICITY":0.00019141,"INCLINATION":87.9141,"RA_OF_ASC_NODE":25.5991,"ARG_OF_PERICENTER":63.9436,"MEAN_ANOMALY":296.1892,"EPHEMERIS_TYPE":0,"CLASSIFICATION_TYPE":"U","NORAD_CAT_ID":61595,"ELEMENT_SET_NO":999,"REV_AT_EPOCH":7282,"BSTAR":-0.00035522594,"MEAN_MOTION_DOT":-1.25e-6,"MEAN_MOTION_DDOT":0},{"OBJECT_NAME":"FENGYUN 1C DEB","OBJECT_ID":"1999-025TR","EPOCH":"2026-03-09T08:34:58.783584","MEAN_MOTION":13.43088207,"ECCENTRICITY":0.03418191,"INCLINATION":98.8939,"RA_OF_ASC_NODE":11.882,"ARG_OF_PERICENTER":269.8532,"MEAN_ANOMALY":247.1576,"EPHEMERIS_TYPE":0,"CLASSIFICATION_TYPE":"U","NORAD_CAT_ID":30160,"ELEMENT_SET_NO":999,"REV_AT_EPOCH":93576,"BSTAR":0.00076910045,"MEAN_MOTION_DOT":5.82e-6,"MEAN_MOTION_DDOT":0}]
